ONEWEB-0116             
1 48046U 21025E   24181.23014090  .00000384  00000+0  10168-2 0  9999
2 48046  87.8934 103.1075 0002209  79.6504 280.4874 13.13472541159407
ONEWEB-0150             
1 48047U 21025F   24181.20473930 -.00000150  00000+0 -44445-3 0  9998
2 48047  87.8927 103.1306 0001901  79.5328 280.6015 13.13468317159290
ONEWEB-0107             
1 48048U 21025G   24180.82543725 -.00000163  00000+0 -48190-3 0  9991
2 48048  87.8929 103.2042 0001697  78.7926 281.3394 13.13471697159224
ONEWEB-0101             
1 48049U 21025H   24180.78895205  .00000153  00000+0  38412-3 0  9993
2 48049  87.8935 103.2286 0002003  74.4413 285.6937 13.13469355159192
ONEWEB-0113             
1 48050U 21025J   24180.84290240  .00000241  00000+0  62520-3 0  9995
2 48050  87.8933 103.1994 0002178  78.8666 281.2708 13.13471685159285
ONEWEB-0112             
1 48051U 21025K   24180.83019956 -.00000029  00000+0 -11348-3 0  9996
2 48051  87.8928 103.2009 0001977  80.3915 279.7437 13.13472302159298
ONEWEB-0156             
1 48052U 21025L   24180.83971933  .00000136  00000+0  33688-3 0  9997
2 48052  87.8931 103.1968 0001956  79.0047 281.1302 13.13472790159271
ONEWEB-0161             
1 48053U 21025M   24180.81274736 -.00000334  00000+0 -94927-3 0  9998
2 48053  87.8937 103.2092 0001832  73.9046 286.2285 13.13470766159202
